ATLAS CENTAUR R/B       
1 06155U 72065B   26072.61236327  .00001611  00000+0  22262-3 0  9999
2 06155  35.0010 282.7655 0033115  42.1273 318.1966 14.77700173841841
SL-8 R/B                
1 08459U 75112B   26072.25928295  .00000286  00000+0  10249-3 0  9995
2 08459  74.0633  12.3459 0014432 104.0167 256.2593 14.38206043632383
SL-3 R/B                
1 10114U 77057B   26072.60361554  .00015596  00000+0  32546-3 0  9998
2 10114  97.5777 244.6968 0006146 267.9324  92.1220 15.45615249668930
SEASAT 1                
1 10967U 78064A   26072.09306762  .00000279  00000+0  11652-3 0  9993
2 10967 108.0103 132.6414 0002358 284.6799  75.4085 14.46163307507008
SL-14 R/B               
1 11267U 79011B   26072.47053375  .00000694  00000+0  65950-4 0  9993
2 11267  82.5205  92.9822 0017200  48.8388 311.4312 14.91913438529343
SL-8 R/B                
1 11574U 79089B   26072.42155193  .00000314  00000+0  10293-3 0  9993
2 11574  74.0667  84.1345 0017114 256.4414 103.4836 14.42353288436643
SL-14 R/B               
1 11672U 80005B   26072.62027333  .00000659  00000+0  64045-4 0  9995
2 11672  82.5137 303.5078 0016496 145.6854 214.5434 14.90935453477071
SL-8 R/B                
1 12139U 81003B   26072.57681267  .00022075  00000+0  56394-3 0  9992
2 12139  82.9385 286.4298 0261810 165.1006 195.8138 15.11134202315261
SL-3 R/B                
1 12465U 81046B   26072.54804227  .00013651  00000+0  31630-3 0  9997
2 12465  81.2297 285.1104 0019237   9.0136 351.1448 15.42099832439028
SL-3 R/B                
1 12904U 81103B   26072.58691072  .00007467  00000+0  33081-3 0  9995
2 12904  81.1587 208.8600 0012342 272.7713  87.2105 15.21429807973824
SL-3 R/B                
1 13068U 82013B   26072.59336384  .00005144  00000+0  22225-3 0  9999
2 13068  81.1759 156.1960 0022856 164.2953 195.8993 15.22058759404941
SL-3 R/B                
1 13154U 82039B   26072.56622573  .00003300  00000+0  19915-3 0  9992
2 13154  81.1577 211.4926 0029560 311.7992  48.0708 15.10107188382220
