CCSDS_OMM_VERS = 2.0
CREATION_DATE  = 
ORIGINATOR     = 

OBJECT_NAME    = ATLAS CENTAUR R/B
OBJECT_ID      = 1972-065B
CENTER_NAME    = EARTH
REF_FRAME      = TEME
TIME_SYSTEM    = UTC
MEAN_ELEMENT_THEORY = SGP/SGP4

EPOCH          = 2026-03-13T14:41:48.186528
MEAN_MOTION    = 14.77700173
ECCENTRICITY   = .00331159
INCLINATION    = 35.0010
RA_OF_ASC_NODE = 282.7655
ARG_OF_PERICENTER = 42.1273
MEAN_ANOMALY   = 318.1966

EPHEMERIS_TYPE = 0
CLASSIFICATION_TYPE = U
NORAD_CAT_ID   = 6155
ELEMENT_SET_NO = 999
REV_AT_EPOCH   = 84184
BSTAR          = .22261766E-3
MEAN_MOTION_DOT = .1611E-4
MEAN_MOTION_DDOT = 0

CCSDS_OMM_VERS = 2.0
CREATION_DATE  = 
ORIGINATOR     = 

OBJECT_NAME    = SL-8 R/B
OBJECT_ID      = 1975-112B
CENTER_NAME    = EARTH
REF_FRAME      = TEME
TIME_SYSTEM    = UTC
MEAN_ELEMENT_THEORY = SGP/SGP4

EPOCH          = 2026-03-13T06:13:22.046880
MEAN_MOTION    = 14.38206043
ECCENTRICITY   = .00144329
INCLINATION    = 74.0633
RA_OF_ASC_NODE = 12.3459
ARG_OF_PERICENTER = 104.0167
MEAN_ANOMALY   = 256.2593

EPHEMERIS_TYPE = 0
CLASSIFICATION_TYPE = U
NORAD_CAT_ID   = 8459
ELEMENT_SET_NO = 999
REV_AT_EPOCH   = 63238
BSTAR          = .10248846E-3
MEAN_MOTION_DOT = .286E-5
MEAN_MOTION_DDOT = 0

CCSDS_OMM_VERS = 2.0
CREATION_DATE  = 
ORIGINATOR     = 

OBJECT_NAME    = SL-3 R/B
OBJECT_ID      = 1977-057B
CENTER_NAME    = EARTH
REF_FRAME      = TEME
TIME_SYSTEM    = UTC
MEAN_ELEMENT_THEORY = SGP/SGP4

EPOCH          = 2026-03-13T14:29:12.382656
MEAN_MOTION    = 15.45615249
ECCENTRICITY   = .00061465
INCLINATION    = 97.5777
RA_OF_ASC_NODE = 244.6968
ARG_OF_PERICENTER = 267.9324
MEAN_ANOMALY   = 92.1220

EPHEMERIS_TYPE = 0
CLASSIFICATION_TYPE = U
NORAD_CAT_ID   = 10114
ELEMENT_SET_NO = 999
REV_AT_EPOCH   = 66893
BSTAR          = .32545835E-3
MEAN_MOTION_DOT = .15596E-3
MEAN_MOTION_DDOT = 0

CCSDS_OMM_VERS = 2.0
CREATION_DATE  = 
ORIGINATOR     = 

OBJECT_NAME    = SEASAT 1
OBJECT_ID      = 1978-064A
CENTER_NAME    = EARTH
REF_FRAME      = TEME
TIME_SYSTEM    = UTC
MEAN_ELEMENT_THEORY = SGP/SGP4

EPOCH          = 2026-03-13T02:14:01.042368
MEAN_MOTION    = 14.46163307
ECCENTRICITY   = .00023583
INCLINATION    = 108.0103
RA_OF_ASC_NODE = 132.6414
ARG_OF_PERICENTER = 284.6799
MEAN_ANOMALY   = 75.4085

EPHEMERIS_TYPE = 0
CLASSIFICATION_TYPE = U
NORAD_CAT_ID   = 10967
ELEMENT_SET_NO = 999
REV_AT_EPOCH   = 50700
BSTAR          = .11651724E-3
MEAN_MOTION_DOT = .279E-5
MEAN_MOTION_DDOT = 0

CCSDS_OMM_VERS = 2.0
CREATION_DATE  = 
ORIGINATOR     = 

OBJECT_NAME    = SL-14 R/B
OBJECT_ID      = 1979-011B
CENTER_NAME    = EARTH
REF_FRAME      = TEME
TIME_SYSTEM    = UTC
MEAN_ELEMENT_THEORY = SGP/SGP4

EPOCH          = 2026-03-13T11:17:34.116000
MEAN_MOTION    = 14.91913438
ECCENTRICITY   = .00172005
INCLINATION    = 82.5205
RA_OF_ASC_NODE = 92.9822
ARG_OF_PERICENTER = 48.8388
MEAN_ANOMALY   = 311.4312

EPHEMERIS_TYPE = 0
CLASSIFICATION_TYPE = U
NORAD_CAT_ID   = 11267
ELEMENT_SET_NO = 999
REV_AT_EPOCH   = 52934
BSTAR          = .65949619E-4
MEAN_MOTION_DOT = .694E-5
MEAN_MOTION_DDOT = 0

CCSDS_OMM_VERS = 2.0
CREATION_DATE  = 
ORIGINATOR     = 

OBJECT_NAME    = SL-8 R/B
OBJECT_ID      = 1979-089B
CENTER_NAME    = EARTH
REF_FRAME      = TEME
TIME_SYSTEM    = UTC
MEAN_ELEMENT_THEORY = SGP/SGP4

EPOCH          = 2026-03-13T10:07:02.086752
MEAN_MOTION    = 14.42353288
ECCENTRICITY   = .00171143
INCLINATION    = 74.0667
RA_OF_ASC_NODE = 84.1345
ARG_OF_PERICENTER = 256.4414
MEAN_ANOMALY   = 103.4836

EPHEMERIS_TYPE = 0
CLASSIFICATION_TYPE = U
NORAD_CAT_ID   = 11574
ELEMENT_SET_NO = 999
REV_AT_EPOCH   = 43664
BSTAR          = .10292592E-3
MEAN_MOTION_DOT = .314E-5
MEAN_MOTION_DDOT = 0

CCSDS_OMM_VERS = 2.0
CREATION_DATE  = 
ORIGINATOR     = 

OBJECT_NAME    = SL-14 R/B
OBJECT_ID      = 1980-005B
CENTER_NAME    = EARTH
REF_FRAME      = TEME
TIME_SYSTEM    = UTC
MEAN_ELEMENT_THEORY = SGP/SGP4

EPOCH          = 2026-03-13T14:53:11.615712
MEAN_MOTION    = 14.90935453
ECCENTRICITY   = .0016496
INCLINATION    = 82.5137
RA_OF_ASC_NODE = 303.5078
ARG_OF_PERICENTER = 145.6854
MEAN_ANOMALY   = 214.5434

EPHEMERIS_TYPE = 0
CLASSIFICATION_TYPE = U
NORAD_CAT_ID   = 11672
ELEMENT_SET_NO = 999
REV_AT_EPOCH   = 47707
BSTAR          = .64044884E-4
MEAN_MOTION_DOT = .659E-5
MEAN_MOTION_DDOT = 0

CCSDS_OMM_VERS = 2.0
CREATION_DATE  = 
ORIGINATOR     = 

OBJECT_NAME    = SL-8 R/B
OBJECT_ID      = 1981-003B
CENTER_NAME    = EARTH
REF_FRAME      = TEME
TIME_SYSTEM    = UTC
MEAN_ELEMENT_THEORY = SGP/SGP4

EPOCH          = 2026-03-13T13:50:36.614688
MEAN_MOTION    = 15.11134202
ECCENTRICITY   = .02618108
INCLINATION    = 82.9385
RA_OF_ASC_NODE = 286.4298
ARG_OF_PERICENTER = 165.1006
MEAN_ANOMALY   = 195.8138

EPHEMERIS_TYPE = 0
CLASSIFICATION_TYPE = U
NORAD_CAT_ID   = 12139
ELEMENT_SET_NO = 999
REV_AT_EPOCH   = 31526
BSTAR          = .56393532E-3
MEAN_MOTION_DOT = .22075E-3
MEAN_MOTION_DDOT = 0

CCSDS_OMM_VERS = 2.0
CREATION_DATE  = 
ORIGINATOR     = 

OBJECT_NAME    = SL-3 R/B
OBJECT_ID      = 1981-046B
CENTER_NAME    = EARTH
REF_FRAME      = TEME
TIME_SYSTEM    = UTC
MEAN_ELEMENT_THEORY = SGP/SGP4

EPOCH          = 2026-03-13T13:09:10.852128
MEAN_MOTION    = 15.42099832
ECCENTRICITY   = .00192379
INCLINATION    = 81.2297
RA_OF_ASC_NODE = 285.1104
ARG_OF_PERICENTER = 9.0136
MEAN_ANOMALY   = 351.1448

EPHEMERIS_TYPE = 0
CLASSIFICATION_TYPE = U
NORAD_CAT_ID   = 12465
ELEMENT_SET_NO = 999
REV_AT_EPOCH   = 43902
BSTAR          = .31629616E-3
MEAN_MOTION_DOT = .13651E-3
MEAN_MOTION_DDOT = 0

CCSDS_OMM_VERS = 2.0
CREATION_DATE  = 
ORIGINATOR     = 

OBJECT_NAME    = SL-3 R/B
OBJECT_ID      = 1981-103B
CENTER_NAME    = EARTH
REF_FRAME      = TEME
TIME_SYSTEM    = UTC
MEAN_ELEMENT_THEORY = SGP/SGP4

EPOCH          = 2026-03-13T14:05:09.086208
MEAN_MOTION    = 15.21429807
ECCENTRICITY   = .00123429
INCLINATION    = 81.1587
RA_OF_ASC_NODE = 208.8600
ARG_OF_PERICENTER = 272.7713
MEAN_ANOMALY   = 87.2105

EPHEMERIS_TYPE = 0
CLASSIFICATION_TYPE = U
NORAD_CAT_ID   = 12904
ELEMENT_SET_NO = 999
REV_AT_EPOCH   = 97382
BSTAR          = .3308134E-3
MEAN_MOTION_DOT = .7467E-4
MEAN_MOTION_DDOT = 0

CCSDS_OMM_VERS = 2.0
CREATION_DATE  = 
ORIGINATOR     = 

OBJECT_NAME    = SL-3 R/B
OBJECT_ID      = 1982-013B
CENTER_NAME    = EARTH
REF_FRAME      = TEME
TIME_SYSTEM    = UTC
MEAN_ELEMENT_THEORY = SGP/SGP4

EPOCH          = 2026-03-13T14:14:26.635776
MEAN_MOTION    = 15.22058759
ECCENTRICITY   = .00228569
INCLINATION    = 81.1759
RA_OF_ASC_NODE = 156.1960
ARG_OF_PERICENTER = 164.2953
MEAN_ANOMALY   = 195.8993

EPHEMERIS_TYPE = 0
CLASSIFICATION_TYPE = U
NORAD_CAT_ID   = 13068
ELEMENT_SET_NO = 999
REV_AT_EPOCH   = 40494
BSTAR          = .22224711E-3
MEAN_MOTION_DOT = .5144E-4
MEAN_MOTION_DDOT = 0

CCSDS_OMM_VERS = 2.0
CREATION_DATE  = 
ORIGINATOR     = 

OBJECT_NAME    = SL-3 R/B
OBJECT_ID      = 1982-039B
CENTER_NAME    = EARTH
REF_FRAME      = TEME
TIME_SYSTEM    = UTC
MEAN_ELEMENT_THEORY = SGP/SGP4

EPOCH          = 2026-03-13T13:35:21.903072
MEAN_MOTION    = 15.10107188
ECCENTRICITY   = .00295603
INCLINATION    = 81.1577
RA_OF_ASC_NODE = 211.4926
ARG_OF_PERICENTER = 311.7992
MEAN_ANOMALY   = 48.0708

EPHEMERIS_TYPE = 0
CLASSIFICATION_TYPE = U
NORAD_CAT_ID   = 13154
ELEMENT_SET_NO = 999
REV_AT_EPOCH   = 38222
BSTAR          = .19914805E-3
MEAN_MOTION_DOT = .33E-4
MEAN_MOTION_DDOT = 0

